CCSDS_OMM_VERS = 2.0
CREATION_DATE  = 
ORIGINATOR     = 

OBJECT_NAME    = ARIANE 5 R/B
OBJECT_ID      = 2004-049H
CENTER_NAME    = EARTH
REF_FRAME      = TEME
TIME_SYSTEM    = UTC
MEAN_ELEMENT_THEORY = SGP/SGP4

EPOCH          = 2025-11-07T00:10:27.422112
MEAN_MOTION    = 14.84899762
ECCENTRICITY   = .008534
INCLINATION    = 98.2515
RA_OF_ASC_NODE = 110.0148
ARG_OF_PERICENTER = 29.4041
MEAN_ANOMALY   = 331.1935

EPHEMERIS_TYPE = 0
CLASSIFICATION_TYPE = U
NORAD_CAT_ID   = 28499
ELEMENT_SET_NO = 999
REV_AT_EPOCH   = 12758
BSTAR          = .12669E-3
MEAN_MOTION_DOT = .1086E-4
MEAN_MOTION_DDOT = 0

CCSDS_OMM_VERS = 2.0
CREATION_DATE  = 
ORIGINATOR     = 

OBJECT_NAME    = CZ-2D R/B
OBJECT_ID      = 2005-024B
CENTER_NAME    = EARTH
REF_FRAME      = TEME
TIME_SYSTEM    = UTC
MEAN_ELEMENT_THEORY = SGP/SGP4

EPOCH          = 2025-11-07T04:41:45.498336
MEAN_MOTION    = 15.50786039
ECCENTRICITY   = .000815
INCLINATION    = 97.3663
RA_OF_ASC_NODE = 317.7689
ARG_OF_PERICENTER = 104.2139
MEAN_ANOMALY   = 256.0019

EPHEMERIS_TYPE = 0
CLASSIFICATION_TYPE = U
NORAD_CAT_ID   = 28738
ELEMENT_SET_NO = 999
REV_AT_EPOCH   = 12074
BSTAR          = .5148E-3
MEAN_MOTION_DOT = .29671E-3
MEAN_MOTION_DDOT = 0

CCSDS_OMM_VERS = 2.0
CREATION_DATE  = 
ORIGINATOR     = 

OBJECT_NAME    = ALOS (DAICHI)
OBJECT_ID      = 2006-002A
CENTER_NAME    = EARTH
REF_FRAME      = TEME
TIME_SYSTEM    = UTC
MEAN_ELEMENT_THEORY = SGP/SGP4

EPOCH          = 2025-11-06T19:24:55.546272
MEAN_MOTION    = 14.69304352
ECCENTRICITY   = .00013712
INCLINATION    = 98.1034
RA_OF_ASC_NODE = 262.5649
ARG_OF_PERICENTER = 50.7602
MEAN_ANOMALY   = 309.3725

EPHEMERIS_TYPE = 0
CLASSIFICATION_TYPE = U
NORAD_CAT_ID   = 28931
ELEMENT_SET_NO = 999
REV_AT_EPOCH   = 5543
BSTAR          = .46297856E-3
MEAN_MOTION_DOT = .2684E-4
MEAN_MOTION_DDOT = 0

CCSDS_OMM_VERS = 2.0
CREATION_DATE  = 
ORIGINATOR     = 

OBJECT_NAME    = H-2A R/B
OBJECT_ID      = 2006-002B
CENTER_NAME    = EARTH
REF_FRAME      = TEME
TIME_SYSTEM    = UTC
MEAN_ELEMENT_THEORY = SGP/SGP4

EPOCH          = 2025-11-06T23:09:49.607136
MEAN_MOTION    = 15.13566058
ECCENTRICITY   = .0054736
INCLINATION    = 98.2310
RA_OF_ASC_NODE = 82.8273
ARG_OF_PERICENTER = 298.8328
MEAN_ANOMALY   = 60.7413

EPHEMERIS_TYPE = 0
CLASSIFICATION_TYPE = U
NORAD_CAT_ID   = 28932
ELEMENT_SET_NO = 999
REV_AT_EPOCH   = 7585
BSTAR          = .56091E-3
MEAN_MOTION_DOT = .10365E-3
MEAN_MOTION_DDOT = 0

CCSDS_OMM_VERS = 2.0
CREATION_DATE  = 
ORIGINATOR     = 

OBJECT_NAME    = RESURS-DK 1
OBJECT_ID      = 2006-021A
CENTER_NAME    = EARTH
REF_FRAME      = TEME
TIME_SYSTEM    = UTC
MEAN_ELEMENT_THEORY = SGP/SGP4

EPOCH          = 2025-11-07T02:32:55.209120
MEAN_MOTION    = 15.11864015
ECCENTRICITY   = .0007382
INCLINATION    = 69.9332
RA_OF_ASC_NODE = 193.9047
ARG_OF_PERICENTER = 288.0039
MEAN_ANOMALY   = 72.0321

EPHEMERIS_TYPE = 0
CLASSIFICATION_TYPE = U
NORAD_CAT_ID   = 29228
ELEMENT_SET_NO = 999
REV_AT_EPOCH   = 6899
BSTAR          = .21155E-3
MEAN_MOTION_DOT = .3523E-4
MEAN_MOTION_DDOT = 0

CCSDS_OMM_VERS = 2.0
CREATION_DATE  = 
ORIGINATOR     = 

OBJECT_NAME    = CZ-4B R/B
OBJECT_ID      = 2006-046C
CENTER_NAME    = EARTH
REF_FRAME      = TEME
TIME_SYSTEM    = UTC
MEAN_ELEMENT_THEORY = SGP/SGP4

EPOCH          = 2025-11-07T02:48:58.855968
MEAN_MOTION    = 15.15337453
ECCENTRICITY   = .0033646
INCLINATION    = 97.5784
RA_OF_ASC_NODE = 351.3546
ARG_OF_PERICENTER = 334.5788
MEAN_ANOMALY   = 25.3788

EPHEMERIS_TYPE = 0
CLASSIFICATION_TYPE = U
NORAD_CAT_ID   = 29507
ELEMENT_SET_NO = 999
REV_AT_EPOCH   = 4147
BSTAR          = .34499E-3
MEAN_MOTION_DOT = .6527E-4
MEAN_MOTION_DDOT = 0

CCSDS_OMM_VERS = 2.0
CREATION_DATE  = 
ORIGINATOR     = 

OBJECT_NAME    = CZ-2C R/B
OBJECT_ID      = 2007-010B
CENTER_NAME    = EARTH
REF_FRAME      = TEME
TIME_SYSTEM    = UTC
MEAN_ELEMENT_THEORY = SGP/SGP4

EPOCH          = 2025-11-06T17:12:50.131296
MEAN_MOTION    = 14.20187226
ECCENTRICITY   = .00579623
INCLINATION    = 98.3956
RA_OF_ASC_NODE = 65.1850
ARG_OF_PERICENTER = 292.1712
MEAN_ANOMALY   = 67.3321

EPHEMERIS_TYPE = 0
CLASSIFICATION_TYPE = U
NORAD_CAT_ID   = 31114
ELEMENT_SET_NO = 999
REV_AT_EPOCH   = 96226
BSTAR          = .1179994E-3
MEAN_MOTION_DOT = .215E-5
MEAN_MOTION_DDOT = 0

CCSDS_OMM_VERS = 2.0
CREATION_DATE  = 
ORIGINATOR     = 

OBJECT_NAME    = COSMO-SKYMED 1
OBJECT_ID      = 2007-023A
CENTER_NAME    = EARTH
REF_FRAME      = TEME
TIME_SYSTEM    = UTC
MEAN_ELEMENT_THEORY = SGP/SGP4

EPOCH          = 2025-11-07T04:40:08.440032
MEAN_MOTION    = 14.95363877
ECCENTRICITY   = .0001366
INCLINATION    = 97.8849
RA_OF_ASC_NODE = 136.3684
ARG_OF_PERICENTER = 92.6831
MEAN_ANOMALY   = 267.4545

EPHEMERIS_TYPE = 0
CLASSIFICATION_TYPE = U
NORAD_CAT_ID   = 31598
ELEMENT_SET_NO = 999
REV_AT_EPOCH   = 99658
BSTAR          = .43586E-3
MEAN_MOTION_DOT = .4752E-4
MEAN_MOTION_DDOT = 0

CCSDS_OMM_VERS = 2.0
CREATION_DATE  = 
ORIGINATOR     = 

OBJECT_NAME    = COSMOS 2428
OBJECT_ID      = 2007-029A
CENTER_NAME    = EARTH
REF_FRAME      = TEME
TIME_SYSTEM    = UTC
MEAN_ELEMENT_THEORY = SGP/SGP4

EPOCH          = 2025-11-06T20:15:05.088096
MEAN_MOTION    = 14.12890458
ECCENTRICITY   = .0001902
INCLINATION    = 70.9363
RA_OF_ASC_NODE = 101.2402
ARG_OF_PERICENTER = 92.4975
MEAN_ANOMALY   = 267.6363

EPHEMERIS_TYPE = 0
CLASSIFICATION_TYPE = U
NORAD_CAT_ID   = 31792
ELEMENT_SET_NO = 999
REV_AT_EPOCH   = 94674
BSTAR          = -.10555E-3
MEAN_MOTION_DOT = -.244E-5
MEAN_MOTION_DDOT = 0

CCSDS_OMM_VERS = 2.0
CREATION_DATE  = 
ORIGINATOR     = 

OBJECT_NAME    = SL-16 R/B
OBJECT_ID      = 2007-029B
CENTER_NAME    = EARTH
REF_FRAME      = TEME
TIME_SYSTEM    = UTC
MEAN_ELEMENT_THEORY = SGP/SGP4

EPOCH          = 2025-11-06T14:30:20.097792
MEAN_MOTION    = 14.14804273
ECCENTRICITY   = .00022065
INCLINATION    = 70.9750
RA_OF_ASC_NODE = 71.1123
ARG_OF_PERICENTER = 257.7834
MEAN_ANOMALY   = 113.4747

EPHEMERIS_TYPE = 0
CLASSIFICATION_TYPE = U
NORAD_CAT_ID   = 31793
ELEMENT_SET_NO = 999
REV_AT_EPOCH   = 94796
BSTAR          = .11206548E-3
MEAN_MOTION_DOT = .168E-5
MEAN_MOTION_DDOT = 0

CCSDS_OMM_VERS = 2.0
CREATION_DATE  = 
ORIGINATOR     = 

OBJECT_NAME    = KORONAS-FOTON
OBJECT_ID      = 2009-003A
CENTER_NAME    = EARTH
REF_FRAME      = TEME
TIME_SYSTEM    = UTC
MEAN_ELEMENT_THEORY = SGP/SGP4

EPOCH          = 2025-11-06T16:57:20.621952
MEAN_MOTION    = 15.40008144
ECCENTRICITY   = .00107857
INCLINATION    = 82.4343
RA_OF_ASC_NODE = 43.4025
ARG_OF_PERICENTER = 235.9000
MEAN_ANOMALY   = 124.1222

EPHEMERIS_TYPE = 0
CLASSIFICATION_TYPE = U
NORAD_CAT_ID   = 33504
ELEMENT_SET_NO = 999
REV_AT_EPOCH   = 92679
BSTAR          = .46139882E-3
MEAN_MOTION_DOT = .18498E-3
MEAN_MOTION_DDOT = 0

CCSDS_OMM_VERS = 2.0
CREATION_DATE  = 
ORIGINATOR     = 

OBJECT_NAME    = CZ-2C R/B
OBJECT_ID      = 2011-030B
CENTER_NAME    = EARTH
REF_FRAME      = TEME
TIME_SYSTEM    = UTC
MEAN_ELEMENT_THEORY = SGP/SGP4

EPOCH          = 2025-11-06T20:12:57.158208
MEAN_MOTION    = 14.80702818
ECCENTRICITY   = .00540181
INCLINATION    = 97.8356
RA_OF_ASC_NODE = 265.7602
ARG_OF_PERICENTER = 31.5987
MEAN_ANOMALY   = 358.5085

EPHEMERIS_TYPE = 0
CLASSIFICATION_TYPE = U
NORAD_CAT_ID   = 37731
ELEMENT_SET_NO = 999
REV_AT_EPOCH   = 77191
BSTAR          = .36372049E-3
MEAN_MOTION_DOT = .2814E-4
MEAN_MOTION_DDOT = 0

