ARIANE 5 R/B            
1 28499U 04049H   25311.00726183  .00001086  00000+0  12669-3 0  9999
2 28499  98.2515 110.0148 0085340  29.4041 331.1935 14.84899762127585
CZ-2D R/B               
1 28738U 05024B   25311.19566549  .00029671  00000+0  51480-3 0  9991
2 28738  97.3663 317.7689 0008150 104.2139 256.0019 15.50786039120740
ALOS (DAICHI)           
1 28931U 06002A   25310.80897623  .00002684  00000+0  46298-3 0  9996
2 28931  98.1034 262.5649 0001371  50.7602 309.3725 14.69304352 55439
H-2A R/B                
1 28932U 06002B   25310.96515749  .00010365  00000+0  56091-3 0  9997
2 28932  98.2310  82.8273 0054736 298.8328  60.7413 15.13566058 75850
RESURS-DK 1             
1 29228U 06021A   25311.10619455  .00003523  00000+0  21155-3 0  9994
2 29228  69.9332 193.9047 0007382 288.0039  72.0321 15.11864015 68999
CZ-4B R/B               
1 29507U 06046C   25311.11734787  .00006527  00000+0  34499-3 0  9990
2 29507  97.5784 351.3546 0033646 334.5788  25.3788 15.15337453 41478
CZ-2C R/B               
1 31114U 07010B   25310.71724689  .00000215  00000+0  11800-3 0  9993
2 31114  98.3956  65.1850 0057962 292.1712  67.3321 14.20187226962260
COSMO-SKYMED 1          
1 31598U 07023A   25311.19454213  .00004752  00000+0  43586-3 0  9995
2 31598  97.8849 136.3684 0001366  92.6831 267.4545 14.95363877996582
COSMOS 2428             
1 31792U 07029A   25310.84380889 -.00000244  00000+0 -10555-3 0  9999
2 31792  70.9363 101.2402 0001902  92.4975 267.6363 14.12890458946745
SL-16 R/B               
1 31793U 07029B   25310.60439928  .00000168  00000+0  11207-3 0  9991
2 31793  70.9750  71.1123 0002206 257.7834 113.4747 14.14804273947960
KORONAS-FOTON           
1 33504U 09003A   25310.70648868  .00018498  00000+0  46140-3 0  9992
2 33504  82.4343  43.4025 0010785 235.9000 124.1222 15.40008144926793
CZ-2C R/B               
1 37731U 11030B   25310.84232822  .00002814  00000+0  36372-3 0  9996
2 37731  97.8356 265.7602 0054018  31.5987 358.5085 14.80702818771918
